STARLINK-37587          
1 69837U 26154U   26197.25002315 -.01588682  00000+0 -86791-2 0  9996
2 69837  53.1592 287.5076 0001179  86.3151 238.3057 15.82105733  2811
STARLINK-37590          
1 69838U 26154V   26197.25002315 -.01550092  00000+0 -84056-2 0  9993
2 69838  53.1594 287.4991 0000982  94.4846 234.2558 15.82190675  2675
STARLINK-37589          
1 69839U 26154W   26197.25002315 -.01651539  00000+0 -89742-2 0  9999
2 69839  53.1594 287.4904 0001074 105.4821 227.3881 15.82343162  2818
STARLINK-37487          
1 69840U 26154X   26197.25002315 -.01705971  80194-3 -53317-2 0  9996
2 69840  53.1570 287.1128 0000963  85.0884  69.1014 15.90937556  2812
STARLINK-37433          
1 69841U 26154Y   26197.25002315 -.02321636  14281-2 -72183-2 0  9995
2 69841  53.1571 287.0960 0001091  84.7951  77.3791 15.91116238  2945
STARLINK-37588          
1 69842U 26154Z   26197.25002315 -.01752345  84124-3 -55233-2 0  9991
2 69842  53.1570 287.0865 0001031  88.6404  78.0718 15.90778630  2844
STARLINK-37579          
1 69843U 26154AA  26197.25002315 -.01620745  00000+0 -58359-2 0  9999
2 69843  53.1571 287.0692 0000986  83.3696  91.5469 15.90589364  2844
STARLINK-37584          
1 69844U 26154AB  26197.25002315 -.01640516  00000+0 -59268-2 0  9998
2 69844  53.1571 287.0577 0000986  89.5093  90.7942 15.90558950  2840
STARLINK-37606          
1 69845U 26154AC  26197.25002315 -.01661163  00000+0 -60385-2 0  9992
2 69845  53.1570 287.0444 0001024  89.9341  96.6273 15.90474663  2847
STARLINK-37603          
1 69846U 26154AD  26197.25002315 -.01771118  00000+0 -65418-2 0  9997
2 69846  53.1570 287.0291 0001104  88.1388 105.6804 15.90357603  2844
STARLINK-37595          
1 69847U 26154AE  26197.25002315 -.01862894  00000+0 -69439-2 0  9997
2 69847  53.1567 287.0174 0000982  85.0909 114.0696 15.90348595  2842
QIANFAN-219             
1 69848U 26155A   26197.27615633  .00000065  00000+0  21075-4 0  9991
2 69848  89.0065  60.8235 0030577 219.5310 140.3653 14.26454601  1536
QIANFAN-220             
1 69849U 26155B   26197.21541870  .00000063  00000+0  22563-4 0  9998
2 69849  89.0065  60.8327 0030041 220.1314 139.7658 14.21022855  1520
QIANFAN-221             
1 69850U 26155C   26197.27547883  .00000244  00000+0  94519-4 0  9997
2 69850  89.0065  60.8233 0030389 219.9633 139.9325 14.26647047  1538
QIANFAN-222             
1 69851U 26155D   26197.21369114  .00000177  00000+0  73032-4 0  9993
2 69851  89.0066  60.8326 0029390 220.2275 139.6742 14.22184761  1524
QIANFAN-223             
1 69852U 26155E   26196.99898168 -.01930248  00000+0 -99980+0 0  9993
2 69852  89.0058  60.8564 0030478 230.7907 129.0576 14.18596986  1492
QIANFAN-224             
1 69853U 26155F   26197.21005792  .00000255  00000+0  10517-3 0  9999
2 69853  89.0059  60.8314 0030012 219.7274 140.1720 14.23568211  1520
QIANFAN-225             
1 69854U 26155G   26196.99583489 -.02004977  00000+0 -10184+1 0  9994
2 69854  89.0058  60.8555 0033066 224.9130 134.9384 14.19748844  1498
QIANFAN-226             
1 69855U 26155H   26196.64332640 -.01954139  00000+0 -94248+0 0  9993
2 69855  89.0073  60.8921 0025328 219.4211 140.5138 14.22513031  1441
QIANFAN-227             
1 69856U 26155J   26197.27509881  .00000181  00000+0  68729-4 0  9993
2 69856  89.0064  60.8232 0030503 219.7771 140.1187 14.26683434  1531
QIANFAN-228             
1 69857U 26155K   26197.13479864  .00000218  00000+0  83916-4 0  9992
2 69857  89.0065  60.8393 0030472 220.3370 139.5564 14.26684103  1512
QIANFAN-229             
1 69858U 26155L   26197.27502313  .00000030  00000+0  63564-5 0  9994
2 69858  89.0066  60.8231 0030522 219.5457 140.3510 14.26689013  1535
QIANFAN-230             
1 69859U 26155M   26197.21503055  .00000203  00000+0  85399-4 0  9994
2 69859  89.0062  60.8325 0029127 220.4822 139.4203 14.21841895  1522
QIANFAN-231             
1 69860U 26155N   26197.20768925  .00000297  00000+0  11787-3 0  9996
2 69860  89.0066  60.8318 0030587 219.1530 140.7450 14.26096185  1521
QIANFAN-232             
1 69861U 26155P   26197.13467436  .00000266  00000+0  10339-3 0  9990
2 69861  89.0065  60.8391 0030402 220.6644 139.2280 14.26735918  1518
QIANFAN-233             
1 69862U 26155Q   26197.13457113  .00000219  00000+0  84347-4 0  9991
2 69862  89.0066  60.8392 0030344 220.4946 139.3990 14.26751728  1515
QIANFAN-234             
1 69863U 26155R   26197.20465690  .00000066  00000+0  20994-4 0  9997
2 69863  89.0066  60.8313 0030314 220.3231 139.5716 14.26758168  1526
QIANFAN-235             
1 69864U 26155S   26197.20461331  .00000066  00000+0  21076-4 0  9998
2 69864  89.0065  60.8311 0030262 220.3283 139.5667 14.26764125  1528
QIANFAN-236             
1 69865U 26155T   26197.20457567  .00000231  00000+0  89035-4 0  9998
2 69865  89.0066  60.8313 0030243 220.3632 139.5318 14.26769390  1521
QIANFAN-237             
1 69866U 26155U   26197.27464590  .00000245  00000+0  94844-4 0  9999
2 69866  89.0065  60.8233 0030221 220.1478 139.7483 14.26777709  1522
