OBJECT_NAME,OBJECT_ID,EPOCH,MEAN_MOTION,ECCENTRICITY,INCLINATION,RA_OF_ASC_NODE,ARG_OF_PERICENTER,MEAN_ANOMALY,EPHEMERIS_TYPE,CLASSIFICATION_TYPE,NORAD_CAT_ID,ELEMENT_SET_NO,REV_AT_EPOCH,BSTAR,MEAN_MOTION_DOT,MEAN_MOTION_DDOT
STARLINK-37587,2026-154U,2026-07-16T06:00:02.000160,15.82105733,.00011793,53.1592,287.5076,86.3151,238.3057,0,U,69837,999,281,-.86791306E-2,-.1588682E-1,0
STARLINK-37590,2026-154V,2026-07-16T06:00:02.000160,15.82190675,.00009824,53.1594,287.4991,94.4846,234.2558,0,U,69838,999,267,-.84055974E-2,-.1550092E-1,0
STARLINK-37589,2026-154W,2026-07-16T06:00:02.000160,15.82343162,.0001074,53.1594,287.4904,105.4821,227.3881,0,U,69839,999,281,-.8974229E-2,-.1651539E-1,0
STARLINK-37487,2026-154X,2026-07-16T06:00:02.000160,15.90937556,.00009631,53.1570,287.1128,85.0884,69.1014,0,U,69840,999,281,-.53316659E-2,-.1705971E-1,.8019369E-3
STARLINK-37433,2026-154Y,2026-07-16T06:00:02.000160,15.91116238,.00010912,53.1571,287.0960,84.7951,77.3791,0,U,69841,999,294,-.72182868E-2,-.2321636E-1,.14280609E-2
STARLINK-37588,2026-154Z,2026-07-16T06:00:02.000160,15.90778630,.00010315,53.1570,287.0865,88.6404,78.0718,0,U,69842,999,284,-.55232883E-2,-.1752345E-1,.84124361E-3
STARLINK-37579,2026-154AA,2026-07-16T06:00:02.000160,15.90589364,.00009869,53.1571,287.0692,83.3696,91.5469,0,U,69843,999,284,-.58359452E-2,-.1620745E-1,0
STARLINK-37584,2026-154AB,2026-07-16T06:00:02.000160,15.90558950,.00009868,53.1571,287.0577,89.5093,90.7942,0,U,69844,999,284,-.59267845E-2,-.1640516E-1,0
STARLINK-37606,2026-154AC,2026-07-16T06:00:02.000160,15.90474663,.00010242,53.1570,287.0444,89.9341,96.6273,0,U,69845,999,284,-.60385467E-2,-.1661163E-1,0
STARLINK-37603,2026-154AD,2026-07-16T06:00:02.000160,15.90357603,.00011041,53.1570,287.0291,88.1388,105.6804,0,U,69846,999,284,-.65417826E-2,-.1771118E-1,0
STARLINK-37595,2026-154AE,2026-07-16T06:00:02.000160,15.90348595,.0000982,53.1567,287.0174,85.0909,114.0696,0,U,69847,999,284,-.69439375E-2,-.1862894E-1,0
QIANFAN-219,2026-155A,2026-07-16T06:37:39.906912,14.26454601,.00305778,89.0065,60.8235,219.5310,140.3653,0,U,69848,999,153,.21074523E-4,.65E-6,0
QIANFAN-220,2026-155B,2026-07-16T05:10:12.175680,14.21022855,.00300418,89.0065,60.8327,220.1314,139.7658,0,U,69849,999,152,.22562927E-4,.63E-6,0
QIANFAN-221,2026-155C,2026-07-16T06:36:41.370912,14.26647047,.00303891,89.0065,60.8233,219.9633,139.9325,0,U,69850,999,153,.94519263E-4,.244E-5,0
QIANFAN-222,2026-155D,2026-07-16T05:07:42.914496,14.22184761,.00293901,89.0066,60.8326,220.2275,139.6742,0,U,69851,999,152,.73032181E-4,.177E-5,0
QIANFAN-223,2026-155E,2026-07-15T23:58:32.017152,14.18596986,.00304781,89.0058,60.8564,230.7907,129.0576,0,U,69852,999,149,-.99979882E+0,-.1930248E-1,0
QIANFAN-224,2026-155F,2026-07-16T05:02:29.004288,14.23568211,.00300121,89.0059,60.8314,219.7274,140.1720,0,U,69853,999,152,.10517042E-3,.255E-5,0
QIANFAN-225,2026-155G,2026-07-15T23:54:00.134496,14.19748844,.00330663,89.0058,60.8555,224.9130,134.9384,0,U,69854,999,149,-.1018399E+1,-.2004977E-1,0
QIANFAN-226,2026-155H,2026-07-15T15:26:23.400960,14.22513031,.00253289,89.0073,60.8921,219.4211,140.5138,0,U,69855,999,144,-.94247573E+0,-.1954139E-1,0
QIANFAN-227,2026-155J,2026-07-16T06:36:08.537184,14.26683434,.00305032,89.0064,60.8232,219.7771,140.1187,0,U,69856,999,153,.68728698E-4,.181E-5,0
QIANFAN-228,2026-155K,2026-07-16T03:14:06.602496,14.26684103,.00304729,89.0065,60.8393,220.3370,139.5564,0,U,69857,999,151,.8391559E-4,.218E-5,0
QIANFAN-229,2026-155L,2026-07-16T06:36:01.998432,14.26689013,.00305229,89.0066,60.8231,219.5457,140.3510,0,U,69858,999,153,.6356394E-5,.3E-6,0
QIANFAN-230,2026-155M,2026-07-16T05:09:38.639520,14.21841895,.00291271,89.0062,60.8325,220.4822,139.4203,0,U,69859,999,152,.85398534E-4,.203E-5,0
QIANFAN-231,2026-155N,2026-07-16T04:59:04.351200,14.26096185,.00305872,89.0066,60.8318,219.1530,140.7450,0,U,69860,999,152,.11787113E-3,.297E-5,0
QIANFAN-232,2026-155P,2026-07-16T03:13:55.864704,14.26735918,.00304026,89.0065,60.8391,220.6644,139.2280,0,U,69861,999,151,.10339264E-3,.266E-5,0
QIANFAN-233,2026-155Q,2026-07-16T03:13:46.945632,14.26751728,.00303445,89.0066,60.8392,220.4946,139.3990,0,U,69862,999,151,.84346848E-4,.219E-5,0
QIANFAN-234,2026-155R,2026-07-16T04:54:42.356160,14.26758168,.00303142,89.0066,60.8313,220.3231,139.5716,0,U,69863,999,152,.20994324E-4,.66E-6,0
QIANFAN-235,2026-155S,2026-07-16T04:54:38.589984,14.26764125,.00302626,89.0065,60.8311,220.3283,139.5667,0,U,69864,999,152,.21075803E-4,.66E-6,0
QIANFAN-236,2026-155T,2026-07-16T04:54:35.337888,14.26769390,.0030243,89.0066,60.8313,220.3632,139.5318,0,U,69865,999,152,.89034555E-4,.231E-5,0
QIANFAN-237,2026-155U,2026-07-16T06:35:29.405760,14.26777709,.00302218,89.0065,60.8233,220.1478,139.7483,0,U,69866,999,152,.94843546E-4,.245E-5,0
